IRIDIUM 136             
1 42962U 17061H   24052.96141688 -.00000283  00000+0 -10826-3 0  9998
2 42962  86.3993  18.8748 0001919  78.6729 281.4682 14.34215992333547
